[Satellite]
VERSION=1.1
NAME=IRIDIUM 180
NICKNAME=IRIDIUM 180
TLE1=1 43922U 19002A   22342.53470843  .00000073  00000+0  19045-4 0  9991
TLE2=2 43922  86.3985 171.3279 0002421  82.9753 277.1718 14.34216117204575
STATUS=0
